{"type": "FeatureCollection", "features": [ {"type": "Feature", "properties": {"norad_id": 44476, "name": "INTELSAT 39 (IS-39)", "group": "intelsat", "lat": 0.024383681896609895, "lon": 49.700071456627946, "alt_km": 35784.92070777081, "timestamp": "2025-12-25T16:53:14.322103+00:00", "meta": {"OBJECT_NAME": "INTELSAT 39 (IS-39)", "OBJECT_ID": "2019-049B", "EPOCH": "2025-12-24T23:39:55.357632", "MEAN_MOTION": 1.0027611, "ECCENTRICITY": 6.204e-05, "INCLINATION": 0.0209, "RA_OF_ASC_NODE": 14.9454, "ARG_OF_PERICENTER": 127.1893, "MEAN_ANOMALY": 8.5314, "EPHEMERIS_TYPE": 0, "CLASSIFICATION_TYPE": "U", "NORAD_CAT_ID": 44476, "ELEMENT_SET_NO": 999, "REV_AT_EPOCH": 2338, "BSTAR": 0, "MEAN_MOTION_DOT": 0, "MEAN_MOTION_DDOT": 0}, "tle": {"line1": "1 44476U 19049B   25358.98605738  .00000000  00000+0  00000+0 0  9995", "line2": "2 44476   0.0209  14.9454 0000620 127.1893   8.5314  1.00276110 23389"}}, "geometry": {"type": "Point", "coordinates": [49.700071456627946, 0.024383681896609895]}}, {"type": "Feature", "properties": {"norad_id": 46114, "name": "GALAXY 30 (G-30)", "group": "intelsat", "lat": -0.027265330234100847, "lon": -137.2604491756332, "alt_km": 35780.391312552296, "timestamp": "2025-12-25T16:53:14.322114+00:00", "meta": {"OBJECT_NAME": "GALAXY 30 (G-30)", "OBJECT_ID": "2020-056C", "EPOCH": "2025-12-25T06:10:38.820000", "MEAN_MOTION": 1.00271167, "ECCENTRICITY": 0.00021608, "INCLINATION": 0.0179, "RA_OF_ASC_NODE": 337.5906, "ARG_OF_PERICENTER": 295.4491, "MEAN_ANOMALY": 148.6389, "EPHEMERIS_TYPE": 0, "CLASSIFICATION_TYPE": "U", "NORAD_CAT_ID": 46114, "ELEMENT_SET_NO": 999, "REV_AT_EPOCH": 1954, "BSTAR": 0, "MEAN_MOTION_DOT": 5.8e-07, "MEAN_MOTION_DDOT": 0}, "tle": {"line1": "1 46114U 20056C   25359.25739375  .00000058  00000+0  00000+0 0  9995", "line2": "2 46114   0.0179 337.5906 0002160 295.4491 148.6389  1.00271167 19544"}}, "geometry": {"type": "Point", "coordinates": [-137.2604491756332, -0.027265330234100847]}}, {"type": "Feature", "properties": {"norad_id": 54026, "name": "GALAXY 33 (G-33)", "group": "intelsat", "lat": -0.016899424451912656, "lon": -145.2421383828153, "alt_km": 35781.45144941051, "timestamp": "2025-12-25T16:53:14.322126+00:00", "meta": {"OBJECT_NAME": "GALAXY 33 (G-33)", "OBJECT_ID": "2022-128A", "EPOCH": "2025-12-24T04:31:51.326400", "MEAN_MOTION": 1.00272122, "ECCENTRICITY": 0.0001643, "INCLINATION": 0.0126, "RA_OF_ASC_NODE": 315.9231, "ARG_OF_PERICENTER": 309.5058, "MEAN_ANOMALY": 122.5078, "EPHEMERIS_TYPE": 0, "CLASSIFICATION_TYPE": "U", "NORAD_CAT_ID": 54026, "ELEMENT_SET_NO": 999, "REV_AT_EPOCH": 1198, "BSTAR": 0, "MEAN_MOTION_DOT": 1e-06, "MEAN_MOTION_DDOT": 0}, "tle": {"line1": "1 54026U 22128A   25358.18878850  .00000100  00000+0  00000+0 0  9999", "line2": "2 54026   0.0126 315.9231 0001643 309.5058 122.5078  1.00272122 11987"}}, "geometry": {"type": "Point", "coordinates": [-145.2421383828153, -0.016899424451912656]}}, {"type": "Feature", "properties": {"norad_id": 54027, "name": "GALAXY 34 (G-34)", "group": "intelsat", "lat": -0.023012495200039937, "lon": -141.2134201565381, "alt_km": 35781.42377453263, "timestamp": "2025-12-25T16:53:14.322138+00:00", "meta": {"OBJECT_NAME": "GALAXY 34 (G-34)", "OBJECT_ID": "2022-128B", "EPOCH": "2025-12-25T04:34:51.612096", "MEAN_MOTION": 1.00269972, "ECCENTRICITY": 0.0001822, "INCLINATION": 0.0223, "RA_OF_ASC_NODE": 3.2758, "ARG_OF_PERICENTER": 263.7454, "MEAN_ANOMALY": 126.6909, "EPHEMERIS_TYPE": 0, "CLASSIFICATION_TYPE": "U", "NORAD_CAT_ID": 54027, "ELEMENT_SET_NO": 999, "REV_AT_EPOCH": 1216, "BSTAR": 0, "MEAN_MOTION_DOT": 0, "MEAN_MOTION_DDOT": 0}, "tle": {"line1": "1 54027U 22128B   25359.19087514  .00000000  00000+0  00000+0 0  9990", "line2": "2 54027   0.0223   3.2758 0001822 263.7454 126.6909  1.00269972 12165"}}, "geometry": {"type": "Point", "coordinates": [-141.2134201565381, -0.023012495200039937]}}, {"type": "Feature", "properties": {"norad_id": 54243, "name": "GALAXY 31 (G-31)", "group": "intelsat", "lat": -0.020051639204668268, "lon": -133.25728656151955, "alt_km": 35782.56470186871, "timestamp": "2025-12-25T16:53:14.322156+00:00", "meta": {"OBJECT_NAME": "GALAXY 31 (G-31)", "OBJECT_ID": "2022-153A", "EPOCH": "2025-12-25T06:10:38.820000", "MEAN_MOTION": 1.00271189, "ECCENTRICITY": 0.00016325, "INCLINATION": 0.0095, "RA_OF_ASC_NODE": 327.1033, "ARG_OF_PERICENTER": 317.678, "MEAN_ANOMALY": 140.8972, "EPHEMERIS_TYPE": 0, "CLASSIFICATION_TYPE": "U", "NORAD_CAT_ID": 54243, "ELEMENT_SET_NO": 999, "REV_AT_EPOCH": 538, "BSTAR": 0, "MEAN_MOTION_DOT": 3.4e-07, "MEAN_MOTION_DDOT": 0}, "tle": {"line1": "1 54243U 22153A   25359.25739375  .00000034  00000+0  00000+0 0  9991", "line2": "2 54243   0.0095 327.1033 0001632 317.6780 140.8972  1.00271189  5383"}}, "geometry": {"type": "Point", "coordinates": [-133.25728656151955, -0.020051639204668268]}}, {"type": "Feature", "properties": {"norad_id": 54244, "name": "GALAXY 32 (G-32)", "group": "intelsat", "lat": -0.026907494698981224, "lon": -103.26062459977612, "alt_km": 35782.32960925122, "timestamp": "2025-12-25T16:53:14.322167+00:00", "meta": {"OBJECT_NAME": "GALAXY 32 (G-32)", "OBJECT_ID": "2022-153B", "EPOCH": "2025-12-24T09:22:58.424736", "MEAN_MOTION": 1.00271076, "ECCENTRICITY": 0.00019303, "INCLINATION": 0.0094, "RA_OF_ASC_NODE": 17.9, "ARG_OF_PERICENTER": 299.4695, "MEAN_ANOMALY": 185.5393, "EPHEMERIS_TYPE": 0, "CLASSIFICATION_TYPE": "U", "NORAD_CAT_ID": 54244, "ELEMENT_SET_NO": 999, "REV_AT_EPOCH": 1139, "BSTAR": 0, "MEAN_MOTION_DOT": -1.53e-06, "MEAN_MOTION_DDOT": 0}, "tle": {"line1": "1 54244U 22153B   25358.39095399 -.00000153  00000+0  00000+0 0  9990", "line2": "2 54244   0.0094  17.9000 0001930 299.4695 185.5393  1.00271076 11390"}}, "geometry": {"type": "Point", "coordinates": [-103.26062459977612, -0.026907494698981224]}}, {"type": "Feature", "properties": {"norad_id": 54741, "name": "GALAXY 35 (G-35)", "group": "intelsat", "lat": -0.014337933603095042, "lon": -105.34013923223519, "alt_km": 35777.18406909931, "timestamp": "2025-12-25T16:53:14.322179+00:00", "meta": {"OBJECT_NAME": "GALAXY 35 (G-35)", "OBJECT_ID": "2022-170A", "EPOCH": "2025-12-24T22:55:44.590080", "MEAN_MOTION": 1.00271199, "ECCENTRICITY": 0.00023051, "INCLINATION": 0.0288, "RA_OF_ASC_NODE": 246.2367, "ARG_OF_PERICENTER": 29.6391, "MEAN_ANOMALY": 68.6906, "EPHEMERIS_TYPE": 0, "CLASSIFICATION_TYPE": "U", "NORAD_CAT_ID": 54741, "ELEMENT_SET_NO": 999, "REV_AT_EPOCH": 1114, "BSTAR": 0, "MEAN_MOTION_DOT": -1.41e-06, "MEAN_MOTION_DDOT": 0}, "tle": {"line1": "1 54741U 22170A   25358.95537720 -.00000141  00000+0  00000+0 0  9999", "line2": "2 54741   0.0288 246.2367 0002305  29.6391  68.6906  1.00271199 11143"}}, "geometry": {"type": "Point", "coordinates": [-105.34013923223519, -0.014337933603095042]}}, {"type": "Feature", "properties": {"norad_id": 54742, "name": "GALAXY 36 (G-36)", "group": "intelsat", "lat": -0.010778706145823918, "lon": -101.23292551517495, "alt_km": 35785.83357554934, "timestamp": "2025-12-25T16:53:14.322190+00:00", "meta": {"OBJECT_NAME": "GALAXY 36 (G-36)", "OBJECT_ID": "2022-170B", "EPOCH": "2025-12-25T00:45:14.126400", "MEAN_MOTION": 1.00272273, "ECCENTRICITY": 3.465e-05, "INCLINATION": 0.0122, "RA_OF_ASC_NODE": 82.1613, "ARG_OF_PERICENTER": 260.7471, "MEAN_ANOMALY": 33.2048, "EPHEMERIS_TYPE": 0, "CLASSIFICATION_TYPE": "U", "NORAD_CAT_ID": 54742, "ELEMENT_SET_NO": 999, "REV_AT_EPOCH": 1102, "BSTAR": 0, "MEAN_MOTION_DOT": -1.64e-06, "MEAN_MOTION_DDOT": 0}, "tle": {"line1": "1 54742U 22170B   25359.03141350 -.00000164  00000+0  00000+0 0  9995", "line2": "2 54742   0.0122  82.1613 0000346 260.7471  33.2048  1.00272273 11028"}}, "geometry": {"type": "Point", "coordinates": [-101.23292551517495, -0.010778706145823918]}}, {"type": "Feature", "properties": {"norad_id": 57493, "name": "GALAXY 37 (G-37)", "group": "intelsat", "lat": -0.01546068273427545, "lon": -139.2657399746858, "alt_km": 35781.22526994593, "timestamp": "2025-12-25T16:53:14.322202+00:00", "meta": {"OBJECT_NAME": "GALAXY 37 (G-37)", "OBJECT_ID": "2023-112A", "EPOCH": "2025-12-25T03:54:15.996960", "MEAN_MOTION": 1.0027171, "ECCENTRICITY": 0.00020864, "INCLINATION": 0.0153, "RA_OF_ASC_NODE": 17.2695, "ARG_OF_PERICENTER": 260.2398, "MEAN_ANOMALY": 107.9755, "EPHEMERIS_TYPE": 0, "CLASSIFICATION_TYPE": "U", "NORAD_CAT_ID": 57493, "ELEMENT_SET_NO": 999, "REV_AT_EPOCH": 879, "BSTAR": 0, "MEAN_MOTION_DOT": 6.9e-07, "MEAN_MOTION_DDOT": 0}, "tle": {"line1": "1 57493U 23112A   25359.16268515  .00000069  00000+0  00000+0 0  9998", "line2": "2 57493   0.0153  17.2695 0002086 260.2398 107.9755  1.00271710  8792"}}, "geometry": {"type": "Point", "coordinates": [-139.2657399746858, -0.01546068273427545]}}]}